STARLINK-31107          
1 58684U 23211T   26068.05927359 -.00000272  00000+0 -37366-6 0  9995
2 58684  42.9994  89.2231 0001392 277.9362  82.1331 15.27585804122363
STARLINK-36554          
1 67502U 26012K   26067.71268370  .00032833  00000+0  11969-2 0  9992
2 67502  42.9934 319.8184 0000695 339.2059  20.8765 15.27591469  7619
